{
  "norad_id": 59835,
  "name": "STARLINK-31947",
  "history": [
    {
      "epoch": "2026-03-28T13:10:30.156960Z",
      "apogee_km": 483.6707596595379,
      "perigee_km": 482.3520469364248,
      "latitude_deg": 4.9254866715721714e-05,
      "longitude_deg": 144.04298292042432,
      "height_km": 483.1724982822378,
      "semi_major_axis_km": 6861.1484032979815,
      "eccentricity": 9.61e-05,
      "inclination_deg": 43.0019,
      "raan_deg": 167.6364,
      "arg_perigee_deg": 234.2978,
      "mean_anomaly_deg": 125.7785,
      "mean_motion_rev_day": 15.27592588
    }
  ]
}